NORAD_CAT_ID,OBJECT_NAME,OBJECT_TYPE,EPOCH,MEAN_MOTION,ECCENTRICITY,INCLINATION,RA_OF_ASC_NODE,ARG_OF_PERICENTER,MEAN_ANOMALY,BSTAR,MEAN_MOTION_DOT,MEAN_MOTION_DDOT,TLE_LINE0,TLE_LINE1,TLE_LINE2,SEMIMAJOR_AXIS,PERIOD,APOGEE,PERIGEE,DECAYED
49755.0,STARLINK-3210,PAYLOAD,2022-02-14 20:00:01,15.17846924,0.0001576999999999,53.2177,330.5621,48.8768,277.9538,-0.034609,-0.0066458,0.0,0 STARLINK-3210,1 49755U 21115AH  22045.83334491 -.00664580  00000-0 -34609-1 0  9992,2 49755  53.2177 330.5621 0001577  48.8768 277.9538 15.17846924  3627,6890.486,94.871,513.438,511.264,0.0
49755.0,STARLINK-3210,PAYLOAD,2022-02-15 06:00:00,15.17154926,0.0001678,53.2171,328.6694,40.8649,43.6014,-0.027018,-0.00511747,0.0,0 STARLINK-3210,1 49755U 21115AH  22046.25001157 -.00511747  00000-0 -27018-1 0  9991,2 49755  53.2171 328.6694 0001678  40.8649  43.6014 15.17154926 12699,6892.581,94.914,515.6030000000002,513.29,0.0
49755.0,STARLINK-3210,PAYLOAD,2022-02-15 14:00:01,15.1671094,0.000161,53.2174,327.1547,37.3657,68.5198,-0.029029,-0.00540998,0.0,0 STARLINK-3210,1 49755U 21115AH  22046.58334491 -.00540998  00000-0 -29029-1 0  9991,2 49755  53.2174 327.1547 0001610  37.3657  68.5198 15.16710940 12747,6893.926,94.942,516.901,514.681,0.0
49755.0,STARLINK-3210,PAYLOAD,2022-02-15 22:00:01,15.16330493,0.00018,53.2175,325.6449,42.3853,84.3881,-0.036216,-0.00665687,0.0,0 STARLINK-3210,1 49755U 21115AH  22046.91668981 -.00665687  00000-0 -36216-1 0  9991,2 49755  53.2175 325.6449 0001800  42.3853  84.3881 15.16330493 12798,6895.079000000002,94.966,518.185,515.703,0.0
49755.0,STARLINK-3210,PAYLOAD,2022-02-16 14:00:01,15.15395772,0.0001622,53.2174,322.6235,51.4799,115.2906,-0.037012,-0.0066257,0.0,0 STARLINK-3210,1 49755U 21115AH  22047.58334491 -.00662570  00000-0 -37012-1 0  9994,2 49755  53.2174 322.6235 0001622  51.4799 115.2906 15.15395772  3634,6897.9140000000025,95.025,520.898,518.66,0.0
49755.0,STARLINK-3210,PAYLOAD,2022-02-16 22:00:00,15.14841665,0.0001732,53.2172,321.1133,56.9759,129.0312,-0.030497,-0.00538944,0.0,0 STARLINK-3210,1 49755U 21115AH  22047.91667824 -.00538944  00000-0 -30497-1 0  9997,2 49755  53.2172 321.1133 0001732  56.9759 129.0312 15.14841665  3619,6899.596,95.059,522.656,520.266,0.0
49755.0,STARLINK-3210,PAYLOAD,2022-02-17 06:00:00,15.14356352,0.000178,53.2168,319.607,52.2821,152.362,-0.029328,-0.0051278,0.0,0 STARLINK-3210,1 49755U 21115AH  22048.25001157 -.00512780  00000-0 -29328-1 0  9997,2 49755  53.2168 319.6070 0001780  52.2821 152.3620 15.14356352 12994,6901.07,95.09,524.164,521.707,0.0
49755.0,STARLINK-3210,PAYLOAD,2022-02-17 14:00:01,15.13984949,0.0001655,53.2173,318.0996,47.764,174.8962,-0.037478,-0.0064566,0.0,0 STARLINK-3210,1 49755U 21115AH  22048.58334491 -.00645660  00000-0 -37478-1 0  9992,2 49755  53.2173 318.0996 0001655  47.7640 174.8962 15.13984949 13042,6902.199000000001,95.113,525.206,522.922,0.0
49755.0,STARLINK-3210,PAYLOAD,2022-02-17 22:00:00,15.13529281,0.0001743,53.2175,316.5961,48.8218,191.3394,-0.039001,-0.00662212,0.0,0 STARLINK-3210,1 49755U 21115AH  22048.91667824 -.00662212  00000-0 -39001-1 0  9994,2 49755  53.2175 316.5961 0001743  48.8218 191.3394 15.13529281  3642,6903.584,95.142,526.6519999999998,524.246,0.0
49755.0,STARLINK-3210,PAYLOAD,2022-02-18 06:00:00,15.12970047,0.0001559,53.2168,315.0908,49.5369,207.6215,-0.031756,-0.00532654,0.0,0 STARLINK-3210,1 49755U 21115AH  22049.25001157 -.00532654  00000-0 -31756-1 0  9998,2 49755  53.2168 315.0908 0001559  49.5369 207.6215 15.12970047 13158,6905.285,95.177,528.227,526.0740000000002,0.0
49755.0,STARLINK-3210,PAYLOAD,2022-02-18 14:00:01,15.12595504,0.0001557,53.2174,313.5873,53.1725,220.3214,-0.039963,-0.00661006,0.0,0 STARLINK-3210,1 49755U 21115AH  22049.58334491 -.00661006  00000-0 -39963-1 0  9996,2 49755  53.2174 313.5873 0001557  53.1725 220.3214 15.12595504 13202,6906.425,95.201,529.365,527.215,0.0
49755.0,STARLINK-3210,PAYLOAD,2022-02-18 22:00:00,15.1212961,0.0001836,53.2174,312.0863,42.4844,246.8334,-0.040553,-0.0066202,0.0,0 STARLINK-3210,1 49755U 21115AH  22049.91667824 -.00662020  00000-0 -40553-1 0  9996,2 49755  53.2174 312.0863 0001836  42.4844 246.8334 15.12129610  3620,6907.844,95.23,530.977,528.44,0.0
49755.0,STARLINK-3210,PAYLOAD,2022-02-19 14:00:01,15.11080384,0.0001911,53.217,309.0822,44.3839,274.9719,-0.03191,-0.00509119,0.0,0 STARLINK-3210,1 49755U 21115AH  22050.58334491 -.00509119  00000-0 -31910-1 0  9998,2 49755  53.2170 309.0822 0001911  44.3839 274.9719 15.11080384 13359,6911.041,95.296,534.227,531.585,0.0
49755.0,STARLINK-3210,PAYLOAD,2022-02-19 22:00:00,15.10651191,0.000156,53.2173,307.5842,49.6363,283.8386,-0.035361,-0.00554463,0.0,0 STARLINK-3210,1 49755U 21115AH  22050.91667824 -.00554463  00000-0 -35361-1 0  9990,2 49755  53.2173 307.5842 0001560  49.6363 283.8386 15.10651191 13401,6912.35,95.323,535.293,533.137,0.0
49755.0,STARLINK-3210,PAYLOAD,2022-02-20 06:00:00,15.10172199,0.0001496999999999,53.2167,306.0871,45.232,301.828,-0.034327,-0.00532529,0.0,0 STARLINK-3210,1 49755U 21115AH  22051.25001157 -.00532529  00000-0 -34327-1 0  9999,2 49755  53.2167 306.0871 0001497  45.2320 301.8280 15.10172199 13459,6913.811,95.353,536.711,534.641,0.0
49755.0,STARLINK-3210,PAYLOAD,2022-02-20 14:00:01,15.09618713,0.0001466,53.2172,304.5885,44.3507,315.7764,-0.026432,-0.00406444,0.0,0 STARLINK-3210,1 49755U 21115AH  22051.58334491 -.00406444  00000-0 -26432-1 0  9999,2 49755  53.2172 304.5885 0001466  44.3507 315.7764 15.09618713 13508,6915.501,95.388,538.38,536.352,0.0
49755.0,STARLINK-3210,PAYLOAD,2022-02-20 22:00:00,15.09220021,0.000156,53.2173,303.0927,58.9945,313.5451,-0.030033,-0.0045375,0.0,0 STARLINK-3210,1 49755U 21115AH  22051.91667824 -.00453750  00000-0 -30033-1 0  9999,2 49755  53.2173 303.0927 0001560  58.9945 313.5451 15.09220021 13557,6916.719,95.414,539.663,537.505,0.0
49755.0,STARLINK-3210,PAYLOAD,2022-02-21 06:00:00,15.08759351,0.0001761,53.2165,301.5953,50.2343,334.2254,0.0055869,0.00089561,0.0,0 STARLINK-3210,1 49755U 21115AH  22052.25001157  .00089561  00000-0  55869-2 0  9996,2 49755  53.2165 301.5953 0001761  50.2343 334.2254 15.08759351 13609,6918.127,95.443,541.21,538.774,0.0
49755.0,STARLINK-3210,PAYLOAD,2022-02-21 22:00:00,15.08852489,0.0001861,53.215,298.5957,49.7855,357.8199,-0.0014173,-0.00022782,0.0,0 STARLINK-3210,1 49755U 21115AH  22052.91667824 -.00022782  00000-0 -14173-2 0  9995,2 49755  53.2150 298.5957 0001861  49.7855 357.8199 15.08852489 13700,6917.842,95.437,540.995,538.42,0.0
49755.0,STARLINK-3210,PAYLOAD,2022-02-22 14:00:01,15.0883093,0.0001721999999999,53.2162,295.601,55.267,15.5518,0.0028973,0.00046113,0.0,0 STARLINK-3210,1 49755U 21115AH  22053.58334491  .00046113  00000-0  28973-2 0  9995,2 49755  53.2162 295.6010 0001722  55.2670  15.5518 15.08830930 13805,6917.908,95.438,540.964,538.582,0.0
49755.0,STARLINK-3210,PAYLOAD,2022-02-22 22:00:00,15.08865109,0.0001881,53.2169,294.1063,51.8508,30.574,-0.0012,-0.00019349,0.0,0 STARLINK-3210,1 49755U 21115AH  22053.91667824 -.00019349  00000-0 -12000-2 0  9998,2 49755  53.2169 294.1063 0001881  51.8508  30.5740 15.08865109  3610,6917.804,95.436,540.97,538.367,0.0
49755.0,STARLINK-3210,PAYLOAD,2022-02-23 06:00:00,15.08882595,0.000186,53.2165,292.6096,49.4445,44.5929,-0.0029677,-0.00047265,0.0,0 STARLINK-3210,1 49755U 21115AH  22054.25001157 -.00047265  00000-0 -29677-2 0  9993,2 49755  53.2165 292.6096 0001860  49.4445  44.5929 15.08882595 13900,6917.75,95.435,540.9019999999998,538.328,0.0
49755.0,STARLINK-3210,PAYLOAD,2022-02-23 14:00:01,15.08837682,0.0001833,53.217,291.1183,58.0539,47.6094,-0.00066196,-0.00010807,0.0,0 STARLINK-3210,1 49755U 21115AH  22054.58334491 -.00010807  00000-0 -66196-3 0  9999,2 49755  53.2170 291.1183 0001833  58.0539  47.6094 15.08837682  3629,6917.887,95.438,541.021,538.484,0.0
49755.0,STARLINK-3210,PAYLOAD,2022-02-23 20:00:01,15.08870876,0.0001809,53.2166,289.9907,53.6584,330.722,-0.0034333,-0.00054562,0.0,0 STARLINK-3210,1 49755U 21115AH  22054.83334491 -.00054562  00000-0 -34333-2 0  9990,2 49755  53.2166 289.9907 0001809  53.6584 330.7220 15.08870876 13997,6917.786,95.436,540.9019999999998,538.4,0.0
49755.0,STARLINK-3210,PAYLOAD,2022-02-23 22:00:00,15.08850245,0.0001849,53.2165,289.617,51.8894,65.4003,-0.0015733,-0.00025247,0.0,0 STARLINK-3210,1 49755U 21115AH  22054.91667824 -.00025247  00000-0 -15733-2 0  9999,2 49755  53.2165 289.6170 0001849  51.8894  65.4003 15.08850245  3610,6917.849,95.437,540.993,538.435,0.0
49755.0,STARLINK-3210,PAYLOAD,2022-02-24 06:00:00,15.08856455,0.0001844,53.2162,288.1202,50.0393,78.8443,-0.0014286,-0.00022963,0.0,0 STARLINK-3210,1 49755U 21115AH  22055.25001157 -.00022963  00000-0 -14286-2 0  9992,2 49755  53.2162 288.1202 0001844  50.0393  78.8443 15.08856455 14052,6917.83,95.437,540.971,538.419,0.0
49755.0,STARLINK-3210,PAYLOAD,2022-02-24 14:00:01,15.08803466,0.0001753,53.2162,286.6223,49.5512,91.0247,0.0020805,0.00032945,0.0,0 STARLINK-3210,1 49755U 21115AH  22055.58334491  .00032945  00000-0  20805-2 0  9991,2 49755  53.2162 286.6223 0001753  49.5512  91.0247 15.08803466  3616,6917.9919999999975,95.44,541.07,538.644,0.0
49755.0,STARLINK-3210,PAYLOAD,2022-02-24 22:00:00,15.08820265,0.0001946,53.2163,285.1278,45.473,106.6664,-0.00064898,-0.00010596,0.0,0 STARLINK-3210,1 49755U 21115AH  22055.91667824 -.00010596  00000-0 -64898-3 0  9998,2 49755  53.2163 285.1278 0001946  45.4730 106.6664 15.08820265  3580,6917.941,95.439,541.1519999999998,538.4590000000002,0.0
49755.0,STARLINK-3210,PAYLOAD,2022-02-25 06:00:00,15.0883651,0.0001934,53.2161,283.6309,44.3128,119.3892,-0.0017011,-0.00027257,0.0,0 STARLINK-3210,1 49755U 21115AH  22056.25001157 -.00027257  00000-0 -17011-2 0  9993,2 49755  53.2161 283.6309 0001934  44.3128 119.3892 15.08836510 14207,6917.891,95.438,541.094,538.418,0.0
